[{"OBJECT_NAME":"RIGIDSPHERE 2 (LCS 4)","OBJECT_ID":"1971-067E","EPOCH":"2026-03-09T21:07:13.855872","MEAN_MOTION":14.3774295,"ECCENTRICITY":0.00588572,"INCLINATION":87.6274,"RA_OF_ASC_NODE":6.3575,"ARG_OF_PERICENTER":200.3798,"MEAN_ANOMALY":159.5053,"EPHEMERIS_TYPE":0,"CLASSIFICATION_TYPE":"U","NORAD_CAT_ID":5398,"ELEMENT_SET_NO":999,"REV_AT_EPOCH":85961,"BSTAR":0.00030050164,"MEAN_MOTION_DOT":9.4e-6,"MEAN_MOTION_DDOT":0},{"OBJECT_NAME":"COSMOS 2251 DEB","OBJECT_ID":"1993-036BLL","EPOCH":"2026-03-07T02:46:36.189696","MEAN_MOTION":14.4372398,"ECCENTRICITY":0.00928485,"INCLINATION":73.9769,"RA_OF_ASC_NODE":345.8905,"ARG_OF_PERICENTER":174.3404,"MEAN_ANOMALY":185.8826,"EPHEMERIS_TYPE":0,"CLASSIFICATION_TYPE":"U","NORAD_CAT_ID":37483,"ELEMENT_SET_NO":999,"REV_AT_EPOCH":66497,"BSTAR":0.00020947003,"MEAN_MOTION_DOT":7.21e-6,"MEAN_MOTION_DDOT":0}]
